[{"OBJECT_NAME":"HERMES-3","OBJECT_ID":"2025-052BR","EPOCH":"2026-03-09T22:30:01.073952","MEAN_MOTION":15.30039786,"ECCENTRICITY":0.00079928,"INCLINATION":97.3987,"RA_OF_ASC_NODE":324.6131,"ARG_OF_PERICENTER":112.9583,"MEAN_ANOMALY":247.2502,"EPHEMERIS_TYPE":0,"CLASSIFICATION_TYPE":"U","NORAD_CAT_ID":63835,"ELEMENT_SET_NO":999,"REV_AT_EPOCH":5486,"BSTAR":0.0006995793,"MEAN_MOTION_DOT":0.00020316,"MEAN_MOTION_DDOT":0},{"OBJECT_NAME":"STARLINK-34229","OBJECT_ID":"2025-119T","EPOCH":"2026-03-08T16:38:06.744768","MEAN_MOTION":15.27603613,"ECCENTRICITY":0.00013273,"INCLINATION":42.9995,"RA_OF_ASC_NODE":312.9644,"ARG_OF_PERICENTER":274.4295,"MEAN_ANOMALY":85.6405,"EPHEMERIS_TYPE":0,"CLASSIFICATION_TYPE":"U","NORAD_CAT_ID":64250,"ELEMENT_SET_NO":999,"REV_AT_EPOCH":4401,"BSTAR":0.001387109,"MEAN_MOTION_DOT":0.00038133,"MEAN_MOTION_DDOT":0}]
